{"type": "FeatureCollection", "features": [ {"type": "Feature", "properties": {"norad_id": 34611, "name": "COSMOS 2251 DEB", "group": "cosmos-2251-debris", "lat": 69.02606094710877, "lon": -154.7487944632834, "alt_km": 639.8506882542697, "timestamp": "2025-12-26T22:28:06.180264+00:00", "meta": {"OBJECT_NAME": "COSMOS 2251 DEB", "OBJECT_ID": "1993-036WG", "EPOCH": "2025-12-26T12:15:57.945312", "MEAN_MOTION": 14.69738867, "ECCENTRICITY": 0.0021375, "INCLINATION": 74.0531, "RA_OF_ASC_NODE": 74.3099, "ARG_OF_PERICENTER": 110.4672, "MEAN_ANOMALY": 265.0492, "EPHEMERIS_TYPE": 0, "CLASSIFICATION_TYPE": "U", "NORAD_CAT_ID": 34611, "ELEMENT_SET_NO": 999, "REV_AT_EPOCH": 88593, "BSTAR": 0.0013572, "MEAN_MOTION_DOT": 8.098e-05, "MEAN_MOTION_DDOT": 0}, "tle": {"line1": "1 34611U 93036WG  25360.51108733  .00008098  00000+0  13572-2 0  9994", "line2": "2 34611  74.0531  74.3099 0021375 110.4672 265.0492 14.69738867885938"}}, "geometry": {"type": "Point", "coordinates": [-154.7487944632834, 69.02606094710877]}}, {"type": "Feature", "properties": {"norad_id": 34613, "name": "COSMOS 2251 DEB", "group": "cosmos-2251-debris", "lat": 29.896144872657967, "lon": 63.2548165174947, "alt_km": 770.5329449745168, "timestamp": "2025-12-26T22:28:06.180275+00:00", "meta": {"OBJECT_NAME": "COSMOS 2251 DEB", "OBJECT_ID": "1993-036WJ", "EPOCH": "2025-12-26T18:41:13.104960", "MEAN_MOTION": 14.26516068, "ECCENTRICITY": 0.0110872, "INCLINATION": 73.9631, "RA_OF_ASC_NODE": 253.0594, "ARG_OF_PERICENTER": 81.2863, "MEAN_ANOMALY": 337.3921, "EPHEMERIS_TYPE": 0, "CLASSIFICATION_TYPE": "U", "NORAD_CAT_ID": 34613, "ELEMENT_SET_NO": 999, "REV_AT_EPOCH": 86663, "BSTAR": 0.0011869, "MEAN_MOTION_DOT": 3.029e-05, "MEAN_MOTION_DDOT": 0}, "tle": {"line1": "1 34613U 93036WJ  25360.77862390  .00003029  00000+0  11869-2 0  9996", "line2": "2 34613  73.9631 253.0594 0110872  81.2863 337.3921 14.26516068866639"}}, "geometry": {"type": "Point", "coordinates": [63.2548165174947, 29.896144872657967]}}, {"type": "Feature", "properties": {"norad_id": 34614, "name": "COSMOS 2251 DEB", "group": "cosmos-2251-debris", "lat": -24.326117084250857, "lon": -49.17617744979655, "alt_km": 708.4992192381042, "timestamp": "2025-12-26T22:28:06.180285+00:00", "meta": {"OBJECT_NAME": "COSMOS 2251 DEB", "OBJECT_ID": "1993-036WK", "EPOCH": "2025-12-24T21:37:08.839200", "MEAN_MOTION": 14.17833523, "ECCENTRICITY": 0.0196231, "INCLINATION": 73.8822, "RA_OF_ASC_NODE": 321.9977, "ARG_OF_PERICENTER": 314.2153, "MEAN_ANOMALY": 74.3764, "EPHEMERIS_TYPE": 0, "CLASSIFICATION_TYPE": "U", "NORAD_CAT_ID": 34614, "ELEMENT_SET_NO": 999, "REV_AT_EPOCH": 84939, "BSTAR": 0.0067486, "MEAN_MOTION_DOT": 0.0001667, "MEAN_MOTION_DDOT": 0}, "tle": {"line1": "1 34614U 93036WK  25358.90079675  .00016670  00000+0  67486-2 0  9997", "line2": "2 34614  73.8822 321.9977 0196231 314.2153  74.3764 14.17833523849390"}}, "geometry": {"type": "Point", "coordinates": [-49.17617744979655, -24.326117084250857]}}, {"type": "Feature", "properties": {"norad_id": 34615, "name": "COSMOS 2251 DEB", "group": "cosmos-2251-debris", "lat": 57.250319508883095, "lon": 64.88904244433769, "alt_km": 886.3409742424737, "timestamp": "2025-12-26T22:28:06.180296+00:00", "meta": {"OBJECT_NAME": "COSMOS 2251 DEB", "OBJECT_ID": "1993-036WL", "EPOCH": "2025-12-26T18:29:29.955840", "MEAN_MOTION": 13.52208084, "ECCENTRICITY": 0.0400092, "INCLINATION": 74.0044, "RA_OF_ASC_NODE": 271.6381, "ARG_OF_PERICENTER": 175.8414, "MEAN_ANOMALY": 220.5303, "EPHEMERIS_TYPE": 0, "CLASSIFICATION_TYPE": "U", "NORAD_CAT_ID": 34615, "ELEMENT_SET_NO": 999, "REV_AT_EPOCH": 83005, "BSTAR": 0.00029425, "MEAN_MOTION_DOT": 3e-06, "MEAN_MOTION_DDOT": 0}, "tle": {"line1": "1 34615U 93036WL  25360.77048560  .00000300  00000+0  29425-3 0  9990", "line2": "2 34615  74.0044 271.6381 0400092 175.8414 220.5303 13.52208084830057"}}, "geometry": {"type": "Point", "coordinates": [64.88904244433769, 57.250319508883095]}}, {"type": "Feature", "properties": {"norad_id": 34619, "name": "COSMOS 2251 DEB", "group": "cosmos-2251-debris", "lat": 13.367480871807109, "lon": 176.55692169178963, "alt_km": 700.8811043518272, "timestamp": "2025-12-26T22:28:06.180306+00:00", "meta": {"OBJECT_NAME": "COSMOS 2251 DEB", "OBJECT_ID": "1993-036WQ", "EPOCH": "2025-12-26T17:29:13.246656", "MEAN_MOTION": 14.64680569, "ECCENTRICITY": 0.0094726, "INCLINATION": 74.0431, "RA_OF_ASC_NODE": 173.057, "ARG_OF_PERICENTER": 264.723, "MEAN_ANOMALY": 94.3124, "EPHEMERIS_TYPE": 0, "CLASSIFICATION_TYPE": "U", "NORAD_CAT_ID": 34619, "ELEMENT_SET_NO": 999, "REV_AT_EPOCH": 89503, "BSTAR": 0.00026764, "MEAN_MOTION_DOT": 1.486e-05, "MEAN_MOTION_DDOT": 0}, "tle": {"line1": "1 34619U 93036WQ  25360.72862554  .00001486  00000+0  26764-3 0  9995", "line2": "2 34619  74.0431 173.0570 0094726 264.7230  94.3124 14.64680569895036"}}, "geometry": {"type": "Point", "coordinates": [176.55692169178963, 13.367480871807109]}}, {"type": "Feature", "properties": {"norad_id": 34620, "name": "COSMOS 2251 DEB", "group": "cosmos-2251-debris", "lat": -1.2308265672113652, "lon": 13.28215381668806, "alt_km": 690.5231649192656, "timestamp": "2025-12-26T22:28:06.180316+00:00", "meta": {"OBJECT_NAME": "COSMOS 2251 DEB", "OBJECT_ID": "1993-036WR", "EPOCH": "2025-12-26T15:00:09.946368", "MEAN_MOTION": 14.49319824, "ECCENTRICITY": 0.0079363, "INCLINATION": 74.0513, "RA_OF_ASC_NODE": 193.5129, "ARG_OF_PERICENTER": 226.8087, "MEAN_ANOMALY": 132.6426, "EPHEMERIS_TYPE": 0, "CLASSIFICATION_TYPE": "U", "NORAD_CAT_ID": 34620, "ELEMENT_SET_NO": 999, "REV_AT_EPOCH": 87028, "BSTAR": 0.0024508, "MEAN_MOTION_DOT": 9.725e-05, "MEAN_MOTION_DDOT": 0}, "tle": {"line1": "1 34620U 93036WR  25360.62511512  .00009725  00000+0  24508-2 0  9998", "line2": "2 34620  74.0513 193.5129 0079363 226.8087 132.6426 14.49319824870282"}}, "geometry": {"type": "Point", "coordinates": [13.28215381668806, -1.2308265672113652]}}, {"type": "Feature", "properties": {"norad_id": 34622, "name": "COSMOS 2251 DEB", "group": "cosmos-2251-debris", "lat": -49.96487828265785, "lon": 121.45133811960412, "alt_km": 870.7418456329169, "timestamp": "2025-12-26T22:28:06.180327+00:00", "meta": {"OBJECT_NAME": "COSMOS 2251 DEB", "OBJECT_ID": "1993-036WT", "EPOCH": "2025-12-26T11:47:44.253024", "MEAN_MOTION": 14.22098383, "ECCENTRICITY": 0.0105003, "INCLINATION": 74.0424, "RA_OF_ASC_NODE": 282.3374, "ARG_OF_PERICENTER": 1.5352, "MEAN_ANOMALY": 116.3755, "EPHEMERIS_TYPE": 0, "CLASSIFICATION_TYPE": "U", "NORAD_CAT_ID": 34622, "ELEMENT_SET_NO": 999, "REV_AT_EPOCH": 86655, "BSTAR": 0.00087348, "MEAN_MOTION_DOT": 2.02e-05, "MEAN_MOTION_DDOT": 0}, "tle": {"line1": "1 34622U 93036WT  25360.49148441  .00002020  00000+0  87348-3 0  9995", "line2": "2 34622  74.0424 282.3374 0105003   1.5352 116.3755 14.22098383866552"}}, "geometry": {"type": "Point", "coordinates": [121.45133811960412, -49.96487828265785]}}, {"type": "Feature", "properties": {"norad_id": 34626, "name": "COSMOS 2251 DEB", "group": "cosmos-2251-debris", "lat": 69.96903790195866, "lon": 64.61320481756016, "alt_km": 643.4812578499141, "timestamp": "2025-12-26T22:28:06.180338+00:00", "meta": {"OBJECT_NAME": "COSMOS 2251 DEB", "OBJECT_ID": "1993-036WX", "EPOCH": "2025-12-26T06:22:44.648256", "MEAN_MOTION": 14.72364831, "ECCENTRICITY": 0.0027261, "INCLINATION": 74.0484, "RA_OF_ASC_NODE": 297.5927, "ARG_OF_PERICENTER": 22.2177, "MEAN_ANOMALY": 127.7803, "EPHEMERIS_TYPE": 0, "CLASSIFICATION_TYPE": "U", "NORAD_CAT_ID": 34626, "ELEMENT_SET_NO": 999, "REV_AT_EPOCH": 89343, "BSTAR": 0.0011281, "MEAN_MOTION_DOT": 7.158e-05, "MEAN_MOTION_DDOT": 0}, "tle": {"line1": "1 34626U 93036WX  25360.26579454  .00007158  00000+0  11281-2 0  9995", "line2": "2 34626  74.0484 297.5927 0027261  22.2177 127.7803 14.72364831893434"}}, "geometry": {"type": "Point", "coordinates": [64.61320481756016, 69.96903790195866]}}, {"type": "Feature", "properties": {"norad_id": 34634, "name": "COSMOS 2251 DEB", "group": "cosmos-2251-debris", "lat": 37.43839093927542, "lon": 175.44784417793988, "alt_km": 677.0974726778086, "timestamp": "2025-12-26T22:28:06.180348+00:00", "meta": {"OBJECT_NAME": "COSMOS 2251 DEB", "OBJECT_ID": "1993-036XF", "EPOCH": "2025-12-26T02:17:44.132352", "MEAN_MOTION": 14.55692956, "ECCENTRICITY": 0.00436541, "INCLINATION": 74.0512, "RA_OF_ASC_NODE": 9.6855, "ARG_OF_PERICENTER": 112.9861, "MEAN_ANOMALY": 304.4596, "EPHEMERIS_TYPE": 0, "CLASSIFICATION_TYPE": "U", "NORAD_CAT_ID": 34634, "ELEMENT_SET_NO": 999, "REV_AT_EPOCH": 88976, "BSTAR": 0.00029034444, "MEAN_MOTION_DOT": 1.256e-05, "MEAN_MOTION_DDOT": 0}, "tle": {"line1": "1 34634U 93036XF  25360.09564968  .00001256  00000+0  29034-3 0  9998", "line2": "2 34634  74.0512   9.6855 0043654 112.9861 304.4596 14.55692956889765"}}, "geometry": {"type": "Point", "coordinates": [175.44784417793988, 37.43839093927542]}}, {"type": "Feature", "properties": {"norad_id": 34635, "name": "COSMOS 2251 DEB", "group": "cosmos-2251-debris", "lat": -65.11243015613047, "lon": 5.205674618311716, "alt_km": 692.3829650379375, "timestamp": "2025-12-26T22:28:06.180359+00:00", "meta": {"OBJECT_NAME": "COSMOS 2251 DEB", "OBJECT_ID": "1993-036XG", "EPOCH": "2025-12-25T22:32:29.783904", "MEAN_MOTION": 14.68422636, "ECCENTRICITY": 0.002762, "INCLINATION": 74.0453, "RA_OF_ASC_NODE": 45.2043, "ARG_OF_PERICENTER": 109.1526, "MEAN_ANOMALY": 312.222, "EPHEMERIS_TYPE": 0, "CLASSIFICATION_TYPE": "U", "NORAD_CAT_ID": 34635, "ELEMENT_SET_NO": 999, "REV_AT_EPOCH": 73413, "BSTAR": 0.00099638, "MEAN_MOTION_DOT": 5.772e-05, "MEAN_MOTION_DDOT": 0}, "tle": {"line1": "1 34635U 93036XG  25359.93923361  .00005772  00000+0  99638-3 0  9990", "line2": "2 34635  74.0453  45.2043 0027620 109.1526 312.2220 14.68422636734137"}}, "geometry": {"type": "Point", "coordinates": [5.205674618311716, -65.11243015613047]}}]}